STARLINK-31666          
1 59572U 24076J   26068.17097980 -.00001767  00000+0 -54722-4 0  9996
2 59572  43.0036   4.9544 0001120 268.9882  91.0841 15.27577145106508
OTTER                   
1 62623U 25009Q   26068.72300813  .00012198  00000+0  45151-3 0  9990
2 62623  97.4065 151.3812 0003573 310.7710  49.3219 15.27809545 63722
